NORAD_CAT_ID,OBJECT_NAME,OBJECT_TYPE,EPOCH,MEAN_MOTION,ECCENTRICITY,INCLINATION,RA_OF_ASC_NODE,ARG_OF_PERICENTER,MEAN_ANOMALY,BSTAR,MEAN_MOTION_DOT,MEAN_MOTION_DDOT,TLE_LINE0,TLE_LINE1,TLE_LINE2,SEMIMAJOR_AXIS,PERIOD,APOGEE,PERIGEE,DECAYED
53624.0,STARLINK-4596,PAYLOAD,2023-03-06 11:17:16,15.0885717,0.0001692,53.2187,128.4674,115.3912,244.7256,0.0011138,0.00017491,0.0,0 STARLINK-4596,1 53624U 22104AN  23065.47032409  .00017491  00000-0  11138-2 0  9992,2 53624  53.2187 128.4674 0001692 115.3912 244.7256 15.08857170 29126,6917.828,95.436,540.863,538.522,0.0
53624.0,STARLINK-4596,PAYLOAD,2023-03-06 20:49:34,15.08844559,0.0001586,53.2173,126.6812,104.2987,255.8181,0.00031308,4.699e-05,0.0,0 STARLINK-4596,1 53624U 22104AN  23065.86776585  .00004699  00000-0  31308-3 0  9993,2 53624  53.2173 126.6812 0001586 104.2987 255.8181 15.08844559 29864,6917.866,95.437,540.829,538.634,0.0
53624.0,STARLINK-4596,PAYLOAD,2023-03-07 09:32:40,15.0883172,0.000158,53.2182,124.3061,116.6751,243.4403,-0.00019178,-3.338e-05,0.0,0 STARLINK-4596,1 53624U 22104AN  23066.39768893 -.00003338  00000-0 -19178-3 0  9997,2 53624  53.2182 124.3061 0001580 116.6751 243.4403 15.08831720 29265,6917.906,95.438,540.864,538.678,0.0
53624.0,STARLINK-4596,PAYLOAD,2023-03-07 15:54:12,15.08857097,9.43e-05,53.2163,123.1127,134.2236,225.8833,0.00050616,7.781e-05,0.0,0 STARLINK-4596,1 53624U 22104AN  23066.66264266  .00007781  00000-0  50616-3 0  9998,2 53624  53.2163 123.1127 0000943 134.2236 225.8833 15.08857097 29301,6917.828,95.436,540.345,539.041,0.0
53624.0,STARLINK-4596,PAYLOAD,2023-03-07 20:40:22,15.08830128,4.18e-05,53.2179,122.2233,177.8981,182.2013,-0.000128,-2.323e-05,0.0,0 STARLINK-4596,1 53624U 22104AN  23066.86136675 -.00002323  00000-0 -12800-3 0  9994,2 53624  53.2179 122.2233 0000418 177.8981 182.2013 15.08830128 30015,6917.911,95.438,540.065,539.486,0.0
53624.0,STARLINK-4596,PAYLOAD,2023-03-08 03:01:55,15.08831615,8.63e-05,53.217,121.0327,96.8601,263.249,3.6566e-06,-2.29e-06,0.0,0 STARLINK-4596,1 53624U 22104AN  23067.12633294 -.00000229  00000-0  36566-5 0  9992,2 53624  53.2170 121.0327 0000863  96.8601 263.2490 15.08831615 29378,6917.906,95.438,540.368,539.174,0.0
53624.0,STARLINK-4596,PAYLOAD,2023-03-08 12:34:13,15.08851171,0.0001018,53.2163,119.2468,93.922,266.1889,0.00088413,0.00013815,0.0,0 STARLINK-4596,1 53624U 22104AN  23067.52377239  .00013815  00000-0  88413-3 0  9990,2 53624  53.2163 119.2468 0001018  93.9220 266.1889 15.08851171 29433,6917.846,95.437,540.415,539.007,0.0
53624.0,STARLINK-4596,PAYLOAD,2023-03-08 20:31:09,15.08848736,5.09e-05,53.2158,117.76,125.3207,234.7833,0.00089416,0.00013975,0.0,0 STARLINK-4596,1 53624U 22104AN  23067.85497168  .00013975  00000-0  89416-3 0  9991,2 53624  53.2158 117.7600 0000509 125.3207 234.7833 15.08848736 30162,6917.854,95.437,540.071,539.367,0.0
53624.0,STARLINK-4596,PAYLOAD,2023-03-09 20:21:56,15.08855613,9.61e-05,53.2159,113.2998,85.7935,274.3167,0.00074187,0.00011544,0.0,0 STARLINK-4596,1 53624U 22104AN  23068.84856922  .00011544  00000-0  74187-3 0  9997,2 53624  53.2159 113.2998 0000961  85.7935 274.3167 15.08855613 30312,6917.833,95.437,540.362,539.033,0.0
53624.0,STARLINK-4596,PAYLOAD,2023-03-10 09:05:01,15.08841071,0.0001255,53.2159,110.9192,98.6058,261.5076,0.0017162,0.00027132,0.0,0 STARLINK-4596,1 53624U 22104AN  23069.37849519  .00027132  00000-0  17162-2 0  9999,2 53624  53.2159 110.9192 0001255  98.6058 261.5076 15.08841071 29710,6917.877,95.437,540.61,538.874,0.0
53624.0,STARLINK-4596,PAYLOAD,2023-03-10 20:12:44,15.08838229,0.0001382,53.2164,108.8377,80.9254,279.1895,0.0010716,0.00016807,0.0,0 STARLINK-4596,1 53624U 22104AN  23069.84217967  .00016807  00000-0  10716-2 0  9992,2 53624  53.2164 108.8377 0001382  80.9254 279.1895 15.08838229 30469,6917.886,95.438,540.707,538.795,0.0
53624.0,STARLINK-4596,PAYLOAD,2023-03-11 07:20:26,15.08840026,0.0001532,53.2174,106.7558,86.0396,274.0771,0.0011094,0.00017412,0.0,0 STARLINK-4596,1 53624U 22104AN  23070.30586286  .00017412  00000-0  11094-2 0  9991,2 53624  53.2174 106.7558 0001532  86.0396 274.0771 15.08840026 29855,6917.88,95.438,540.805,538.685,0.0
53624.0,STARLINK-4596,PAYLOAD,2023-03-11 12:06:35,15.08848207,0.0001496,53.2174,105.8622,94.0255,266.0908,0.00089737,0.00014026,0.0,0 STARLINK-4596,1 53624U 22104AN  23070.50458094  .00014026  00000-0  89737-3 0  9996,2 53624  53.2174 105.8622 0001496  94.0255 266.0908 15.08848207 30561,6917.855,95.437,540.755,538.685,0.0
53624.0,STARLINK-4596,PAYLOAD,2023-03-11 13:41:58,15.08853305,0.000148,53.2175,105.5652,92.568,267.5481,0.0010567,0.00016575,0.0,0 STARLINK-4596,1 53624U 22104AN  23070.57081992  .00016575  00000-0  10567-2 0  9997,2 53624  53.2175 105.5652 0001480  92.5680 267.5481 15.08853305 30578,6917.84,95.437,540.729,538.681,0.0
53624.0,STARLINK-4596,PAYLOAD,2023-03-12 02:25:04,15.08845128,0.0001405,53.2172,103.1872,90.9662,269.1491,0.00049395,7.583e-05,0.0,0 STARLINK-4596,1 53624U 22104AN  23071.10074216  .00007583  00000-0  49395-3 0  9999,2 53624  53.2172 103.1872 0001405  90.9662 269.1491 15.08845128 29977,6917.865,95.437,540.702,538.758,0.0
53624.0,STARLINK-4596,PAYLOAD,2023-03-12 05:35:50,15.08851699,0.0001403,53.2171,102.5927,90.7273,269.388,0.00072137,0.00011215,0.0,0 STARLINK-4596,1 53624U 22104AN  23071.23322119  .00011215  00000-0  72137-3 0  9998,2 53624  53.2171 102.5927 0001403  90.7273 269.3880 15.08851699 30677,6917.845,95.437,540.68,538.739,0.0
53624.0,STARLINK-4596,PAYLOAD,2023-03-12 13:32:45,15.08865854,0.0001443,53.2169,101.1039,100.0712,260.0443,0.0011668,0.00018343,0.0,0 STARLINK-4596,1 53624U 22104AN  23071.56441642  .00018343  00000-0  11668-2 0  9997,2 53624  53.2169 101.1039 0001443 100.0712 260.0443 15.08865854 30042,6917.801,95.436,540.665,538.668,0.0
53624.0,STARLINK-4596,PAYLOAD,2023-03-14 05:17:23,15.08829437,0.0001785,53.2163,93.6675,124.1233,235.9929,0.00020144,2.918e-05,0.0,0 STARLINK-4596,1 53624U 22104AN  23073.22041633  .00002918  00000-0  20144-3 0  9999,2 53624  53.2163  93.6675 0001785 124.1233 235.9929 15.08829437 30295,6917.913,95.438,541.013,538.543,0.0
53624.0,STARLINK-4596,PAYLOAD,2023-03-14 10:03:33,15.08831664,0.000166,53.2169,92.7764,123.0498,237.0654,-0.00017842,-3.126e-05,0.0,0 STARLINK-4596,1 53624U 22104AN  23073.41913772 -.00003126  00000-0 -17842-3 0  9997,2 53624  53.2169  92.7764 0001660 123.0498 237.0654 15.08831664 31006,6917.906,95.438,540.919,538.622,0.0
53624.0,STARLINK-4596,PAYLOAD,2023-03-14 18:00:29,15.08841147,0.0001324,53.2171,91.2945,93.4244,266.69,-1.0579e-05,-4.56e-06,0.0,0 STARLINK-4596,1 53624U 22104AN  23073.75033767 -.00000456  00000-0 -10579-4 0  9995,2 53624  53.2171  91.2945 0001324  93.4244 266.6900 15.08841147 31054,6917.877,95.437,540.658,538.826,0.0
53624.0,STARLINK-4596,PAYLOAD,2023-03-15 09:54:19,15.08863568,0.0001282,53.2172,88.3203,87.389,272.7249,0.0008059,0.00012569,0.0,0 STARLINK-4596,1 53624U 22104AN  23074.41273107  .00012569  00000-0  80590-3 0  9998,2 53624  53.2172  88.3203 0001282  87.3890 272.7249 15.08863568 30471,6917.808,95.436,540.56,538.786,0.0
53624.0,STARLINK-4596,PAYLOAD,2023-03-15 13:05:05,15.08877808,0.0001254,53.2171,87.7254,84.5505,275.563,0.0011733,0.00018454,0.0,0 STARLINK-4596,1 53624U 22104AN  23074.54520715  .00018454  00000-0  11733-2 0  9993,2 53624  53.2171  87.7254 0001254  84.5505 275.5630 15.08877808 31175,6917.765,95.435,540.497,538.762,0.0
53624.0,STARLINK-4596,PAYLOAD,2023-03-16 04:58:58,15.08839331,0.0001439,53.2166,84.7523,83.5184,276.5972,4.0093e-05,3.5e-06,0.0,0 STARLINK-4596,1 53624U 22104AN  23075.20761605  .00000350  00000-0  40093-4 0  9991,2 53624  53.2166  84.7523 0001439  83.5184 276.5972 15.08839331 30596,6917.882,95.438,540.743,538.752,0.0
53624.0,STARLINK-4596,PAYLOAD,2023-03-16 12:55:53,15.0884396,0.0001611,53.2166,83.2654,91.2972,268.8204,0.0011542,0.00018131,0.0,0 STARLINK-4596,1 53624U 22104AN  23075.53881703  .00018131  00000-0  11542-2 0  9990,2 53624  53.2166  83.2654 0001611  91.2972 268.8204 15.08843960 31325,6917.868,95.437,540.848,538.619,0.0
53624.0,STARLINK-4596,PAYLOAD,2023-03-16 17:42:03,15.08815305,0.0001374,53.2172,82.3727,91.9321,268.1828,0.0012181,0.00019138,0.0,0 STARLINK-4596,1 53624U 22104AN  23075.73753926  .00019138  00000-0  12181-2 0  9995,2 53624  53.2172  82.3727 0001374  91.9321 268.1828 15.08815305 30678,6917.956,95.439,540.771,538.87,0.0
53624.0,STARLINK-4596,PAYLOAD,2023-03-17 06:25:08,15.0883541,0.0001518,53.2167,79.9938,90.3495,269.7671,0.00089643,0.00014006,0.0,0 STARLINK-4596,1 53624U 22104AN  23076.26746448  .00014006  00000-0  89643-3 0  9992,2 53624  53.2167  79.9938 0001518  90.3495 269.7671 15.08835410 31430,6917.894,95.438,540.81,538.709,0.0
53624.0,STARLINK-4596,PAYLOAD,2023-03-18 04:40:32,15.0885059,0.0001544,53.2163,75.8308,87.0304,273.0864,0.00078035,0.00012157,0.0,0 STARLINK-4596,1 53624U 22104AN  23077.19482383  .00012157  00000-0  78035-3 0  9998,2 53624  53.2163  75.8308 0001544  87.0304 273.0864 15.08850590 30890,6917.848,95.437,540.781,538.645,0.0
53624.0,STARLINK-4596,PAYLOAD,2023-03-18 17:23:37,15.08837908,0.0001911,53.2171,73.4519,89.9296,270.1915,-2.0971e-06,-3.22e-06,0.0,0 STARLINK-4596,1 53624U 22104AN  23077.72474458 -.00000322  00000-0 -20971-5 0  9992,2 53624  53.2171  73.4519 0001911  89.9296 270.1915 15.08837908 30978,6917.887,95.438,541.074,538.43,0.0
53624.0,STARLINK-4596,PAYLOAD,2023-03-19 10:52:51,15.08859779,0.0001504,53.2181,70.1805,92.786,267.3305,0.00094037,0.00014718,0.0,0 STARLINK-4596,1 53624U 22104AN  23078.45337900  .00014718  00000-0  94037-3 0  9997,2 53624  53.2181  70.1805 0001504  92.7860 267.3305 15.08859779 31082,6917.82,95.436,540.725,538.644,0.0
53624.0,STARLINK-4596,PAYLOAD,2023-03-20 05:57:29,15.0884737,0.0001551,53.2181,66.6143,102.0975,258.0191,0.00031666,4.756e-05,0.0,0 STARLINK-4596,1 53624U 22104AN  23079.24826142  .00004756  00000-0  31666-3 0  9996,2 53624  53.2181  66.6143 0001551 102.0975 258.0191 15.08847370 31209,6917.858,95.437,540.796,538.65,0.0
